INTELSAT 902 (IS-902)   
1 26900U 01039A   26203.05877976 -.00000285  00000+0  00000+0 0  9996
2 26900   6.2015  71.3515 0004260  49.9201 149.6054  1.00272571 91040
INTELSAT 904 (IS-904)   
1 27380U 02007A   26203.04766975 -.00000228  00000+0  00000+0 0  9997
2 27380   7.0045  68.7623 0005228  28.9259 187.7973  1.00273714 52118
DIRECTV 5 (TEMPO 1)     
1 27426U 02023A   26202.59452191 -.00000059  00000+0  00000+0 0  9999
2 27426   4.9634  74.8795 0003183  42.2842 286.1042  1.00271980 88463
INTELSAT 905 (IS-905)   
1 27438U 02027A   26203.23072654  .00000091  00000+0  00000+0 0  9995
2 27438   6.8391  69.3731 0003581  50.4193 126.0398  1.00272521 51714
GALAXY 3C (G-3C)        
1 27445U 02030A   26202.81138117 -.00000153  00000+0  00000+0 0  9997
2 27445   3.8215  77.5316 0001830  29.2222  30.0641  1.00271470 46841
INTELSAT 906 (IS-906)   
1 27513U 02041A   26203.19918509  .00000011  00000+0  00000+0 0  9990
2 27513   5.8877  72.4845 0003445  31.3733 331.9511  1.00271321 87387
GALAXY 13 (HORIZONS-1)  
1 27954U 03044A   26203.15694734  .00000134  00000+0  00000+0 0  9996
2 27954   1.5063  83.4058 0002078  43.2480  79.7653  1.00274403 46929
INTELSAT 10-02          
1 28358U 04022A   26202.97256385 -.00000008  00000+0  00000+0 0  9998
2 28358   0.0563 255.0025 0000168 273.6635 120.1792  1.00272464 80903
DIRECTV 8               
1 28659U 05019A   26203.25183655  .00000004  00000+0  00000+0 0  9995
2 28659   0.0151  74.6514 0003210  51.4762 145.4838  1.00273255 77425
GALAXY 28 (G-28)        
1 28702U 05022A   26203.08725427 -.00000200  00000+0  00000+0 0  9997
2 28702   3.3852  78.4988 0002323  39.7089 185.9446  1.00271877 52324
GALAXY 16 (G-16)        
1 29236U 06023A   26203.24072392 -.00000124  00000+0  00000+0 0  9991
2 29236   0.0258 131.2805 0002799 349.9856 166.3727  1.00272662 73323
DIRECTV 9S              
1 29494U 06043A   26203.24627885 -.00000112  00000+0  00000+0 0  9999
2 29494   2.5088  80.4807 0005191  34.6391 172.3303  1.00271879 51732
GALAXY 17 (G-17)        
1 31307U 07016B   26203.24103992 -.00000206  00000+0  00000+0 0  9998
2 31307   3.0576  79.4596 0003533  33.5586 188.7271  1.00272483 70155
INTELSAT 11 (IS-11)     
1 32253U 07044B   26203.08725427 -.00000240  00000+0  00000+0 0  9993
2 32253   3.6539  78.2452 0004536  99.0128 126.3439  0.99052988 68796
HORIZONS-2              
1 32388U 07063B   26203.24329326 -.00000253  00000+0  00000+0 0  9993
2 32388   2.6901  80.1975 0003680  20.9303 212.6510  1.00272187 68164
DIRECTV 11              
1 32729U 08013A   26203.24072392 -.00000123  00000+0  00000+0 0  9992
2 32729   0.0106 274.4500 0000163 157.9570 215.0474  1.00272095 45949
GALAXY 18 (G-18)        
1 32951U 08024A   26203.23349988  .00000000  00000+0  00000+0 0  9991
2 32951   0.0173  50.0418 0003143  76.2197 134.7935  1.00273380 46202
GALAXY 19 (G-19)        
1 33376U 08045A   26203.24072392 -.00000136  00000+0  00000+0 0  9990
2 33376   0.0620 252.2864 0002684 240.5031 156.8516  1.00271552 65259
FM-5                    
1 35493U 09034A   26203.24086659 -.00000197  00000+0  00000+0 0  9999
2 35493   0.0420 258.8429 0000833 127.7146 273.9626  1.00269893 46993
INTELSAT 14 (IS-14)     
1 36097U 09064A   26203.24901330 -.00000270  00000+0  00000+0 0  9997
2 36097   0.0173  53.6806 0002537  69.6198 221.3356  1.00271409 60958
INTELSAT 15 (IS-15)     
1 36106U 09067A   26203.14350167 -.00000182  00000+0  00000+0 0  9998
2 36106   0.0162  53.4481 0002361  66.0972 317.1576  1.00272279 41571
DIRECTV 12              
1 36131U 09075A   26203.24627885 -.00000100  00000+0  00000+0 0  9990
2 36131   0.0344 210.3409 0000230 356.0705  79.5195  1.00271831 46905
INTELSAT 16 (IS-16)     
1 36397U 10006A   26203.10021293 -.00000242  00000+0  00000+0 0  9993
2 36397   0.0126 335.0218 0002730 164.3757 120.3107  1.00270606 60008
XM-5                    
1 37185U 10053A   26203.25183655 -.00000020  00000+0  00000+0 0  9992
2 37185   0.0630 264.5598 0001301 309.6512  61.2468  1.00270729 57833
INTELSAT 17 (IS-17)     
1 37238U 10065B   26203.12836208  .00000001  00000+0  00000+0 0  9997
2 37238   0.0149 100.2075 0002584  34.9537 276.9355  1.00273086 53590
INTELSAT 28 (IS-28)     
1 37392U 11016A   26203.10903532 -.00000224  00000+0  00000+0 0  9996
2 37392   1.8941  82.1999 0003982  43.2306 181.9700  1.00271316 53631
INTELSAT 18 (IS-18)     
1 37834U 11056A   26203.07969839  .00000056  00000+0  00000+0 0  9991
2 37834   0.0138 335.3049 0001992 150.2693  22.9334  1.00271656 54160
INTELSAT 22 (IS-22)     
1 38098U 12011A   26203.12957543 -.00000055  00000+0  00000+0 0  9991
2 38098   0.0031 355.3853 0002032 149.6250 273.6131  1.00271516  7531
INTELSAT 19 (IS-19)     
1 38356U 12030A   26203.21156005 -.00000053  00000+0  00000+0 0  9991
2 38356   0.0021 344.6729 0003068 134.1324  63.3104  1.00272900 50801
INTELSAT 20 (IS-20)     
1 38740U 12043A   26203.05739243 -.00000022  00000+0  00000+0 0  9991
2 38740   0.0158  79.1510 0001406 105.2574 204.5613  1.00271770 51097
INTELSAT 21 (IS-21)     
1 38749U 12045A   26203.24641328 -.00000282  00000+0  00000+0 0  9997
2 38749   0.0372 254.9027 0001871 235.8817 199.9200  1.00271069 50871
